start=new Date('2022-04-03T00:00:00.000Z').valueOf();
sats=[{"REF_FRAME":"TEME","MEAN_ANOMALY":"303.3827","SITE":"AFWTR","CLASSIFICATION_TYPE":"U","RA_OF_ASC_NODE":"296.1323","APOAPSIS":"579.303","CENTER_NAME":"EARTH","FILE":"3385473","GP_ID":"200324927","EPOCH":"2022-04-02T22:00:01.999584","MEAN_MOTION_DOT":"0.00035412","NORAD_CAT_ID":"49166","LAUNCH_DATE":"2021-09-14","ELEMENT_SET_NO":"999","COUNTRY_CODE":"US","INCLINATION":"69.9994","ARG_OF_PERICENTER":"274.4804","OBJECT_TYPE":"PAYLOAD","TLE_LINE2":"2 49166  69.9994 296.1323 0003134 274.4804 303.3827 14.96693541  3580","MEAN_ELEMENT_THEORY":"SGP4","RCS_SIZE":"LARGE","BSTAR":"0.00308790000000","REV_AT_EPOCH":"358","TIME_SYSTEM":"UTC","MEAN_MOTION_DDOT":"0.0000000000000","EPHEMERIS_TYPE":"0","MEAN_MOTION":"14.96693541","SEMIMAJOR_AXIS":"6955.258","DECAY_DATE":null,"ECCENTRICITY":"0.00031340","TLE_LINE1":"1 49166U 21082AN  22092.91668981  .00035412  00000-0  30879-2 0  9996","OBJECT_ID":"2021-082AN","OBJECT_NAME":"STARLINK-3089","PERIOD":"96.212","PERIAPSIS":"574.943"},{"NORAD_CAT_ID":"49167","MEAN_MOTION_DOT":"0.00019338","EPOCH":"2022-04-02T22:00:01.999584","COUNTRY_CODE":"US","INCLINATION":"70.0013","ELEMENT_SET_NO":"999","LAUNCH_DATE":"2021-09-14","OBJECT_TYPE":"PAYLOAD","ARG_OF_PERICENTER":"277.7055","SITE":"AFWTR","MEAN_ANOMALY":"47.5352","REF_FRAME":"TEME","APOAPSIS":"574.370","RA_OF_ASC_NODE":"317.0607","CLASSIFICATION_TYPE":"U","FILE":"3385045","GP_ID":"200294061","CENTER_NAME":"EARTH","MEAN_MOTION":"14.98310603","EPHEMERIS_TYPE":"0","ECCENTRICITY":"0.00032400","DECAY_DATE":null,"SEMIMAJOR_AXIS":"6950.253","OBJECT_ID":"2021-082AP","TLE_LINE1":"1 49167U 21082AP  22092.91668981  .00019338  00000-0  16248-2 0  9990","PERIOD":"96.108","PERIAPSIS":"569.866","OBJECT_NAME":"STARLINK-3054","REV_AT_EPOCH":"3197","BSTAR":"0.00162480000000","RCS_SIZE":"LARGE","MEAN_ELEMENT_THEORY":"SGP4","TLE_LINE2":"2 49167  70.0013 317.0607 0003240 277.7055  47.5352 14.98310603 31977","TIME_SYSTEM":"UTC","MEAN_MOTION_DDOT":"0.0000000000000"},{"ARG_OF_PERICENTER":"273.1617","OBJECT_TYPE":"PAYLOAD","LAUNCH_DATE":"2021-09-14","ELEMENT_SET_NO":"999","COUNTRY_CODE":"US","INCLINATION":"70.0000","EPOCH":"2022-04-02T22:00:01.999584","MEAN_MOTION_DOT":"-0.00010881","NORAD_CAT_ID":"49168","CENTER_NAME":"EARTH","GP_ID":"200323926","FILE":"3385473","CLASSIFICATION_TYPE":"U","RA_OF_ASC_NODE":"296.1332","APOAPSIS":"579.130","MEAN_ANOMALY":"23.4372","REF_FRAME":"TEME","SITE":"AFWTR","OBJECT_NAME":"STARLINK-3101","PERIAPSIS":"574.968","PERIOD":"96.211","TLE_LINE1":"1 49168U 21082AQ  22092.91668981 -.00010881  00000-0 -94405-3 0  9999","OBJECT_ID":"2021-082AQ","SEMIMAJOR_AXIS":"6955.184","DECAY_DATE":null,"ECCENTRICITY":"0.00029920","EPHEMERIS_TYPE":"0","MEAN_MOTION":"14.96717429","MEAN_MOTION_DDOT":"0.0000000000000","TIME_SYSTEM":"UTC","TLE_LINE2":"2 49168  70.0000 296.1332 0002992 273.1617  23.4372 14.96717429  3578","RCS_SIZE":"LARGE","BSTAR":"-0.00094405000000","MEAN_ELEMENT_THEORY":"SGP4","REV_AT_EPOCH":"357"},{"TIME_SYSTEM":"UTC","MEAN_MOTION_DDOT":"0.0000000000000","REV_AT_EPOCH":"358","RCS_SIZE":"LARGE","MEAN_ELEMENT_THEORY":"SGP4","BSTAR":"-0.00089480000000","TLE_LINE2":"2 49169  69.9982 296.1311 0003030 275.6034 354.7567 14.96721062  3581","OBJECT_ID":"2021-082AR","TLE_LINE1":"1 49169U 21082AR  22092.91668981 -.00010320  00000-0 -89480-3 0  9995","PERIAPSIS":"574.930","PERIOD":"96.210","OBJECT_NAME":"STARLINK-3046","EPHEMERIS_TYPE":"0","MEAN_MOTION":"14.96721062","ECCENTRICITY":"0.00030300","DECAY_DATE":null,"SEMIMAJOR_AXIS":"6955.173","GP_ID":"200324176","FILE":"3385473","CENTER_NAME":"EARTH","SITE":"AFWTR","MEAN_ANOMALY":"354.7567","REF_FRAME":"TEME","APOAPSIS":"579.145","RA_OF_ASC_NODE":"296.1311","CLASSIFICATION_TYPE":"U","OBJECT_TYPE":"PAYLOAD","ARG_OF_PERICENTER":"275.6034","NORAD_CAT_ID":"49169","MEAN_MOTION_DOT":"-0.00010320","EPOCH":"2022-04-02T22:00:01.999584","COUNTRY_CODE":"US","INCLINATION":"69.9982","ELEMENT_SET_NO":"999","LAUNCH_DATE":"2021-09-14"},{"BSTAR":"-0.00207950000000","RCS_SIZE":"LARGE","MEAN_ELEMENT_THEORY":"SGP4","TLE_LINE2":"2 49170  70.0004 317.0622 0003200 281.0187 183.8711 14.98339824  3583","REV_AT_EPOCH":"358","MEAN_MOTION_DDOT":"0.0000000000000","TIME_SYSTEM":"UTC","SEMIMAJOR_AXIS":"6950.163","ECCENTRICITY":"0.00032000","DECAY_DATE":null,"EPHEMERIS_TYPE":"0","MEAN_MOTION":"14.98339824","PERIOD":"96.106","PERIAPSIS":"569.803","OBJECT_NAME":"STARLINK-3074","TLE_LINE1":"1 49170U 21082AS  22092.91668981 -.00024824  00000-0 -20795-2 0  9994","OBJECT_ID":"2021-082AS","RA_OF_ASC_NODE":"317.0622","CLASSIFICATION_TYPE":"U","APOAPSIS":"574.252","MEAN_ANOMALY":"183.8711","REF_FRAME":"TEME","SITE":"AFWTR","CENTER_NAME":"EARTH","GP_ID":"200325428","FILE":"3385473","LAUNCH_DATE":"2021-09-14","INCLINATION":"70.0004","COUNTRY_CODE":"US","ELEMENT_SET_NO":"999","MEAN_MOTION_DOT":"-0.00024824","EPOCH":"2022-04-02T22:00:01.999584","NORAD_CAT_ID":"49170","ARG_OF_PERICENTER":"281.0187","OBJECT_TYPE":"PAYLOAD"},{"LAUNCH_DATE":"2021-09-14","INCLINATION":"70.0006","COUNTRY_CODE":"US","ELEMENT_SET_NO":"999","MEAN_MOTION_DOT":"0.00015273","EPOCH":"2022-04-02T22:00:01.999584","NORAD_CAT_ID":"49171","ARG_OF_PERICENTER":"283.6635","OBJECT_TYPE":"PAYLOAD","RA_OF_ASC_NODE":"317.0668","CLASSIFICATION_TYPE":"U","APOAPSIS":"574.350","REF_FRAME":"TEME","MEAN_ANOMALY":"78.3485","SITE":"AFWTR","CENTER_NAME":"EARTH","FILE":"3385473","GP_ID":"200325178","SEMIMAJOR_AXIS":"6950.240","ECCENTRICITY":"0.00032310","DECAY_DATE":null,"EPHEMERIS_TYPE":"0","MEAN_MOTION":"14.98314875","PERIOD":"96.108","PERIAPSIS":"569.859","OBJECT_NAME":"STARLINK-3107","TLE_LINE1":"1 49171U 21082AT  22092.91668981  .00015273  00000-0  12855-2 0  9999","OBJECT_ID":"2021-082AT","BSTAR":"0.00128550000000","RCS_SIZE":"LARGE","MEAN_ELEMENT_THEORY":"SGP4","TLE_LINE2":"2 49171  70.0006 317.0668 0003231 283.6635  78.3485 14.98314875  3558","REV_AT_EPOCH":"355","MEAN_MOTION_DDOT":"0.0000000000000","TIME_SYSTEM":"UTC"},{"OBJECT_TYPE":"PAYLOAD","ARG_OF_PERICENTER":"281.8450","NORAD_CAT_ID":"49172","EPOCH":"2022-04-02T22:00:01.999584","MEAN_MOTION_DOT":"0.00019354","ELEMENT_SET_NO":"999","INCLINATION":"69.9963","COUNTRY_CODE":"US","LAUNCH_DATE":"2021-09-14","FILE":"3385473","GP_ID":"200324427","CENTER_NAME":"EARTH","SITE":"AFWTR","REF_FRAME":"TEME","MEAN_ANOMALY":"149.1779","APOAPSIS":"579.377","CLASSIFICATION_TYPE":"U","RA_OF_ASC_NODE":"296.1512","OBJECT_ID":"2021-082AU","TLE_LINE1":"1 49172U 21082AU  22092.91668981  .00019354  00000-0  16946-2 0  9999","OBJECT_NAME":"STARLINK-3091","PERIOD":"96.211","PERIAPSIS":"574.786","MEAN_MOTION":"14.96706903","EPHEMERIS_TYPE":"0","DECAY_DATE":null,"ECCENTRICITY":"0.00033000","SEMIMAJOR_AXIS":"6955.217","TIME_SYSTEM":"UTC","MEAN_MOTION_DDOT":"0.0000000000000","REV_AT_EPOCH":"358","TLE_LINE2":"2 49172  69.9963 296.1512 0003300 281.8450 149.1779 14.96706903  3586","RCS_SIZE":"LARGE","BSTAR":"0.00169460000000","MEAN_ELEMENT_THEORY":"SGP4"},{"DECAY_DATE":null,"ECCENTRICITY":"0.00030700","SEMIMAJOR_AXIS":"6955.250","MEAN_MOTION":"14.96696125","EPHEMERIS_TYPE":"0","OBJECT_NAME":"STARLINK-3045","PERIAPSIS":"574.980","PERIOD":"96.212","OBJECT_ID":"2021-082AV","TLE_LINE1":"1 49173U 21082AV  22092.91668981  .00034902  00000-0  30436-2 0  9996","REV_AT_EPOCH":"357","TLE_LINE2":"2 49173  69.9997 296.1380 0003070 280.8772  35.7625 14.96696125  3570","RCS_SIZE":"LARGE","BSTAR":"0.00304360000000","MEAN_ELEMENT_THEORY":"SGP4","MEAN_MOTION_DDOT":"0.0000000000000","TIME_SYSTEM":"UTC","ELEMENT_SET_NO":"999","COUNTRY_CODE":"US","INCLINATION":"69.9997","LAUNCH_DATE":"2021-09-14","NORAD_CAT_ID":"49173","EPOCH":"2022-04-02T22:00:01.999584","MEAN_MOTION_DOT":"0.00034902","OBJECT_TYPE":"PAYLOAD","ARG_OF_PERICENTER":"280.8772","APOAPSIS":"579.250","CLASSIFICATION_TYPE":"U","RA_OF_ASC_NODE":"296.1380","SITE":"AFWTR","MEAN_ANOMALY":"35.7625","REF_FRAME":"TEME","GP_ID":"200324677","FILE":"3385473","CENTER_NAME":"EARTH"},{"EPHEMERIS_TYPE":"0","MEAN_MOTION":"14.96687296","SEMIMAJOR_AXIS":"6955.277","DECAY_DATE":null,"ECCENTRICITY":"0.00028830","TLE_LINE1":"1 49174U 21082AW  22092.91668981  .00033916  00000-0  29590-2 0  9990","OBJECT_ID":"2021-082AW","OBJECT_NAME":"STARLINK-3047","PERIOD":"96.212","PERIAPSIS":"575.137","TLE_LINE2":"2 49174  69.9998 296.1310 0002883 269.3244  64.7647 14.96687296  3577","MEAN_ELEMENT_THEORY":"SGP4","RCS_SIZE":"LARGE","BSTAR":"0.00295900000000","REV_AT_EPOCH":"357","TIME_SYSTEM":"UTC","MEAN_MOTION_DDOT":"0.0000000000000","EPOCH":"2022-04-02T22:00:01.999584","MEAN_MOTION_DOT":"0.00033916","NORAD_CAT_ID":"49174","LAUNCH_DATE":"2021-09-14","ELEMENT_SET_NO":"999","INCLINATION":"69.9998","COUNTRY_CODE":"US","ARG_OF_PERICENTER":"269.3244","OBJECT_TYPE":"PAYLOAD","MEAN_ANOMALY":"64.7647","REF_FRAME":"TEME","SITE":"AFWTR","CLASSIFICATION_TYPE":"U","RA_OF_ASC_NODE":"296.1310","APOAPSIS":"579.148","CENTER_NAME":"EARTH","GP_ID":"200324928","FILE":"3385473"},{"MEAN_MOTION_DDOT":"0.0000000000000","TIME_SYSTEM":"UTC","REV_AT_EPOCH":"358","TLE_LINE2":"2 49175  69.9981 296.1360 0003230 281.5807 254.5785 14.96696375  3584","RCS_SIZE":"LARGE","BSTAR":"0.00273440000000","MEAN_ELEMENT_THEORY":"SGP4","OBJECT_NAME":"STARLINK-3087","PERIOD":"96.212","PERIAPSIS":"574.868","OBJECT_ID":"2021-082AX","TLE_LINE1":"1 49175U 21082AX  22092.91668981  .00031331  00000-0  27344-2 0  9995","DECAY_DATE":null,"ECCENTRICITY":"0.00032300","SEMIMAJOR_AXIS":"6955.249","MEAN_MOTION":"14.96696375","EPHEMERIS_TYPE":"0","GP_ID":"200325679","FILE":"3385473","CENTER_NAME":"EARTH","APOAPSIS":"579.361","CLASSIFICATION_TYPE":"U","RA_OF_ASC_NODE":"296.1360","SITE":"AFWTR","MEAN_ANOMALY":"254.5785","REF_FRAME":"TEME","OBJECT_TYPE":"PAYLOAD","ARG_OF_PERICENTER":"281.5807","ELEMENT_SET_NO":"999","INCLINATION":"69.9981","COUNTRY_CODE":"US","LAUNCH_DATE":"2021-09-14","NORAD_CAT_ID":"49175","EPOCH":"2022-04-02T22:00:01.999584","MEAN_MOTION_DOT":"0.00031331"}];
